CCSDS_OMM_VERS = 2.0
CREATION_DATE  = 
ORIGINATOR     = 

OBJECT_NAME    = ATLAS CENTAUR 2
OBJECT_ID      = 1963-047A
CENTER_NAME    = EARTH
REF_FRAME      = TEME
TIME_SYSTEM    = UTC
MEAN_ELEMENT_THEORY = SGP/SGP4

EPOCH          = 2026-01-20T14:42:13.322016
MEAN_MOTION    = 14.11920387
ECCENTRICITY   = .05482906
INCLINATION    = 30.3538
RA_OF_ASC_NODE = 104.2906
ARG_OF_PERICENTER = 16.6400
MEAN_ANOMALY   = 345.1453

EPHEMERIS_TYPE = 0
CLASSIFICATION_TYPE = U
NORAD_CAT_ID   = 694
ELEMENT_SET_NO = 999
REV_AT_EPOCH   = 12482
BSTAR          = .27194447E-3
MEAN_MOTION_DOT = .2304E-4
MEAN_MOTION_DDOT = 0

CCSDS_OMM_VERS = 2.0
CREATION_DATE  = 
ORIGINATOR     = 

OBJECT_NAME    = THOR AGENA D R/B
OBJECT_ID      = 1964-002A
CENTER_NAME    = EARTH
REF_FRAME      = TEME
TIME_SYSTEM    = UTC
MEAN_ELEMENT_THEORY = SGP/SGP4

EPOCH          = 2026-01-21T00:08:46.544928
MEAN_MOTION    = 14.33986080
ECCENTRICITY   = .00335265
INCLINATION    = 99.1223
RA_OF_ASC_NODE = 31.7498
ARG_OF_PERICENTER = 38.6872
MEAN_ANOMALY   = 321.6703

EPHEMERIS_TYPE = 0
CLASSIFICATION_TYPE = U
NORAD_CAT_ID   = 733
ELEMENT_SET_NO = 999
REV_AT_EPOCH   = 23146
BSTAR          = .15279054E-3
MEAN_MOTION_DOT = .38E-5
MEAN_MOTION_DDOT = 0

CCSDS_OMM_VERS = 2.0
CREATION_DATE  = 
ORIGINATOR     = 

OBJECT_NAME    = SL-3 R/B
OBJECT_ID      = 1964-053B
CENTER_NAME    = EARTH
REF_FRAME      = TEME
TIME_SYSTEM    = UTC
MEAN_ELEMENT_THEORY = SGP/SGP4

EPOCH          = 2026-01-20T15:36:24.344064
MEAN_MOTION    = 14.61312730
ECCENTRICITY   = .00770532
INCLINATION    = 65.0772
RA_OF_ASC_NODE = 112.0730
ARG_OF_PERICENTER = 307.5541
MEAN_ANOMALY   = 51.8575

EPHEMERIS_TYPE = 0
CLASSIFICATION_TYPE = U
NORAD_CAT_ID   = 877
ELEMENT_SET_NO = 999
REV_AT_EPOCH   = 25977
BSTAR          = .14863022E-3
MEAN_MOTION_DOT = .642E-5
MEAN_MOTION_DDOT = 0

CCSDS_OMM_VERS = 2.0
CREATION_DATE  = 
ORIGINATOR     = 

OBJECT_NAME    = SL-8 R/B
OBJECT_ID      = 1967-045B
CENTER_NAME    = EARTH
REF_FRAME      = TEME
TIME_SYSTEM    = UTC
MEAN_ELEMENT_THEORY = SGP/SGP4

EPOCH          = 2026-01-20T13:09:01.602144
MEAN_MOTION    = 14.45577140
ECCENTRICITY   = .00628283
INCLINATION    = 74.0106
RA_OF_ASC_NODE = 77.9965
ARG_OF_PERICENTER = 96.9911
MEAN_ANOMALY   = 263.8399

EPHEMERIS_TYPE = 0
CLASSIFICATION_TYPE = U
NORAD_CAT_ID   = 2802
ELEMENT_SET_NO = 999
REV_AT_EPOCH   = 8206
BSTAR          = .15344313E-3
MEAN_MOTION_DOT = .527E-5
MEAN_MOTION_DDOT = 0

CCSDS_OMM_VERS = 2.0
CREATION_DATE  = 
ORIGINATOR     = 

OBJECT_NAME    = SL-8 R/B
OBJECT_ID      = 1968-040B
CENTER_NAME    = EARTH
REF_FRAME      = TEME
TIME_SYSTEM    = UTC
MEAN_ELEMENT_THEORY = SGP/SGP4

EPOCH          = 2026-01-20T18:53:20.985216
MEAN_MOTION    = 15.02846978
ECCENTRICITY   = .00261666
INCLINATION    = 74.0304
RA_OF_ASC_NODE = 51.5449
ARG_OF_PERICENTER = 247.7435
MEAN_ANOMALY   = 112.0978

EPHEMERIS_TYPE = 0
CLASSIFICATION_TYPE = U
NORAD_CAT_ID   = 3230
ELEMENT_SET_NO = 999
REV_AT_EPOCH   = 8281
BSTAR          = .53437772E-3
MEAN_MOTION_DOT = .718E-4
MEAN_MOTION_DDOT = 0

CCSDS_OMM_VERS = 2.0
CREATION_DATE  = 
ORIGINATOR     = 

OBJECT_NAME    = OAO 2
OBJECT_ID      = 1968-110A
CENTER_NAME    = EARTH
REF_FRAME      = TEME
TIME_SYSTEM    = UTC
MEAN_ELEMENT_THEORY = SGP/SGP4

EPOCH          = 2026-01-20T20:04:07.033728
MEAN_MOTION    = 14.47271894
ECCENTRICITY   = .00054308
INCLINATION    = 34.9917
RA_OF_ASC_NODE = 172.3932
ARG_OF_PERICENTER = 181.1559
MEAN_ANOMALY   = 178.9120

EPHEMERIS_TYPE = 0
CLASSIFICATION_TYPE = U
NORAD_CAT_ID   = 3597
ELEMENT_SET_NO = 999
REV_AT_EPOCH   = 1216
BSTAR          = .12471885E-3
MEAN_MOTION_DOT = .444E-5
MEAN_MOTION_DDOT = 0

CCSDS_OMM_VERS = 2.0
CREATION_DATE  = 
ORIGINATOR     = 

OBJECT_NAME    = ISIS 1
OBJECT_ID      = 1969-009A
CENTER_NAME    = EARTH
REF_FRAME      = TEME
TIME_SYSTEM    = UTC
MEAN_ELEMENT_THEORY = SGP/SGP4

EPOCH          = 2026-01-20T22:05:14.479008
MEAN_MOTION    = 11.30383001
ECCENTRICITY   = .17078056
INCLINATION    = 88.4531
RA_OF_ASC_NODE = 160.5146
ARG_OF_PERICENTER = 185.5536
MEAN_ANOMALY   = 172.4131

EPHEMERIS_TYPE = 0
CLASSIFICATION_TYPE = U
NORAD_CAT_ID   = 3669
ELEMENT_SET_NO = 999
REV_AT_EPOCH   = 34313
BSTAR          = .40315241E-3
MEAN_MOTION_DOT = .574E-5
MEAN_MOTION_DDOT = 0

CCSDS_OMM_VERS = 2.0
CREATION_DATE  = 
ORIGINATOR     = 

OBJECT_NAME    = SERT 2
OBJECT_ID      = 1970-009A
CENTER_NAME    = EARTH
REF_FRAME      = TEME
TIME_SYSTEM    = UTC
MEAN_ELEMENT_THEORY = SGP/SGP4

EPOCH          = 2026-01-20T19:49:08.543712
MEAN_MOTION    = 13.58723594
ECCENTRICITY   = .00041486
INCLINATION    = 99.2701
RA_OF_ASC_NODE = 326.5543
ARG_OF_PERICENTER = 292.9788
MEAN_ANOMALY   = 84.9480

EPHEMERIS_TYPE = 0
CLASSIFICATION_TYPE = U
NORAD_CAT_ID   = 4327
ELEMENT_SET_NO = 999
REV_AT_EPOCH   = 77339
BSTAR          = .97384864E-4
MEAN_MOTION_DOT = .3E-6
MEAN_MOTION_DDOT = 0

CCSDS_OMM_VERS = 2.0
CREATION_DATE  = 
ORIGINATOR     = 

OBJECT_NAME    = SL-3 R/B
OBJECT_ID      = 1971-028B
CENTER_NAME    = EARTH
REF_FRAME      = TEME
TIME_SYSTEM    = UTC
MEAN_ELEMENT_THEORY = SGP/SGP4

EPOCH          = 2026-01-20T20:15:47.205504
MEAN_MOTION    = 15.57288334
ECCENTRICITY   = .00181895
INCLINATION    = 81.2379
RA_OF_ASC_NODE = 110.9557
ARG_OF_PERICENTER = 101.2279
MEAN_ANOMALY   = 259.1018

EPHEMERIS_TYPE = 0
CLASSIFICATION_TYPE = U
NORAD_CAT_ID   = 5118
ELEMENT_SET_NO = 999
REV_AT_EPOCH   = 98121
BSTAR          = .72380256E-3
MEAN_MOTION_DOT = .53475E-3
MEAN_MOTION_DDOT = 0

CCSDS_OMM_VERS = 2.0
CREATION_DATE  = 
ORIGINATOR     = 

OBJECT_NAME    = ASTEX 1
OBJECT_ID      = 1971-089A
CENTER_NAME    = EARTH
REF_FRAME      = TEME
TIME_SYSTEM    = UTC
MEAN_ELEMENT_THEORY = SGP/SGP4

EPOCH          = 2026-01-20T21:13:49.649952
MEAN_MOTION    = 14.50700822
ECCENTRICITY   = .0013631
INCLINATION    = 92.7156
RA_OF_ASC_NODE = 136.2894
ARG_OF_PERICENTER = 242.1496
MEAN_ANOMALY   = 117.8330

EPHEMERIS_TYPE = 0
CLASSIFICATION_TYPE = U
NORAD_CAT_ID   = 5560
ELEMENT_SET_NO = 999
REV_AT_EPOCH   = 85537
BSTAR          = .29840729E-3
MEAN_MOTION_DOT = .1172E-4
MEAN_MOTION_DDOT = 0

CCSDS_OMM_VERS = 2.0
CREATION_DATE  = 
ORIGINATOR     = 

OBJECT_NAME    = SL-8 R/B
OBJECT_ID      = 1971-119B
CENTER_NAME    = EARTH
REF_FRAME      = TEME
TIME_SYSTEM    = UTC
MEAN_ELEMENT_THEORY = SGP/SGP4

EPOCH          = 2026-01-20T23:20:31.541856
MEAN_MOTION    = 14.36587006
ECCENTRICITY   = .05558504
INCLINATION    = 73.8872
RA_OF_ASC_NODE = 264.8281
ARG_OF_PERICENTER = 241.1982
MEAN_ANOMALY   = 113.2288

EPHEMERIS_TYPE = 0
CLASSIFICATION_TYPE = U
NORAD_CAT_ID   = 5730
ELEMENT_SET_NO = 999
REV_AT_EPOCH   = 64863
BSTAR          = .70311311E-3
MEAN_MOTION_DOT = .13567E-3
MEAN_MOTION_DDOT = 0

CCSDS_OMM_VERS = 2.0
CREATION_DATE  = 
ORIGINATOR     = 

OBJECT_NAME    = OAO 3 (COPERNICUS)
OBJECT_ID      = 1972-065A
CENTER_NAME    = EARTH
REF_FRAME      = TEME
TIME_SYSTEM    = UTC
MEAN_ELEMENT_THEORY = SGP/SGP4

EPOCH          = 2026-01-20T22:48:46.515168
MEAN_MOTION    = 14.59947693
ECCENTRICITY   = .00060382
INCLINATION    = 35.0039
RA_OF_ASC_NODE = 209.2952
ARG_OF_PERICENTER = 134.2676
MEAN_ANOMALY   = 19.3429

EPHEMERIS_TYPE = 0
CLASSIFICATION_TYPE = U
NORAD_CAT_ID   = 6153
ELEMENT_SET_NO = 999
REV_AT_EPOCH   = 83921
BSTAR          = .13810349E-3
MEAN_MOTION_DOT = .651E-5
MEAN_MOTION_DDOT = 0

