ATLAS CENTAUR 2         
1 00694U 63047A   26020.61265419  .00002304  00000+0  27194-3 0  9997
2 00694  30.3538 104.2906 0548290  16.6400 345.1453 14.11920387124828
THOR AGENA D R/B        
1 00733U 64002A   26021.00609427  .00000380  00000+0  15279-3 0  9991
2 00733  99.1223  31.7498 0033526  38.6872 321.6703 14.33986080231466
SL-3 R/B                
1 00877U 64053B   26020.65028176  .00000642  00000+0  14863-3 0  9991
2 00877  65.0772 112.0730 0077053 307.5541  51.8575 14.61312730259771
SL-8 R/B                
1 02802U 67045B   26020.54793521  .00000527  00000+0  15344-3 0  9993
2 02802  74.0106  77.9965 0062828  96.9911 263.8399 14.45577140 82060
SL-8 R/B                
1 03230U 68040B   26020.78704844  .00007180  00000+0  53438-3 0  9999
2 03230  74.0304  51.5449 0026166 247.7435 112.0978 15.02846978 82816
OAO 2                   
1 03597U 68110A   26020.83619252  .00000444  00000+0  12472-3 0  9996
2 03597  34.9917 172.3932 0005430 181.1559 178.9120 14.47271894 12163
ISIS 1                  
1 03669U 69009A   26020.92030647  .00000574  00000+0  40315-3 0  9990
2 03669  88.4531 160.5146 1707805 185.5536 172.4131 11.30383001343132
SERT 2                  
1 04327U 70009A   26020.82579333  .00000030  00000+0  97385-4 0  9990
2 04327  99.2701 326.5543 0004148 292.9788  84.9480 13.58723594773395
SL-3 R/B                
1 05118U 71028B   26020.84429636  .00053475  00000+0  72380-3 0  9991
2 05118  81.2379 110.9557 0018189 101.2279 259.1018 15.57288334981217
ASTEX 1                 
1 05560U 71089A   26020.88460243  .00001172  00000+0  29841-3 0  9993
2 05560  92.7156 136.2894 0013631 242.1496 117.8330 14.50700822855373
SL-8 R/B                
1 05730U 71119B   26020.97258729  .00013567  00000+0  70311-3 0  9999
2 05730  73.8872 264.8281 0555850 241.1982 113.2288 14.36587006648630
OAO 3 (COPERNICUS)      
1 06153U 72065A   26020.95053837  .00000651  00000+0  13810-3 0  9992
2 06153  35.0039 209.2952 0006038 134.2676  19.3429 14.59947693839210
